[{"OBJECT_NAME":"LILACSAT-2","OBJECT_ID":"2015-049K","EPOCH":"2026-03-09T23:12:58.381632","MEAN_MOTION":15.48038151,"ECCENTRICITY":0.00057071,"INCLINATION":97.4809,"RA_OF_ASC_NODE":102.2016,"ARG_OF_PERICENTER":243.9614,"MEAN_ANOMALY":116.1049,"EPHEMERIS_TYPE":0,"CLASSIFICATION_TYPE":"U","NORAD_CAT_ID":40908,"ELEMENT_SET_NO":999,"REV_AT_EPOCH":58038,"BSTAR":0.00038951259,"MEAN_MOTION_DOT":0.00020324,"MEAN_MOTION_DDOT":0},{"OBJECT_NAME":"FLOCK 4Q-35","OBJECT_ID":"2023-174BF","EPOCH":"2026-03-09T21:44:34.605312","MEAN_MOTION":15.50220638,"ECCENTRICITY":0.00080298,"INCLINATION":97.3893,"RA_OF_ASC_NODE":157.9669,"ARG_OF_PERICENTER":147.4932,"MEAN_ANOMALY":212.6815,"EPHEMERIS_TYPE":0,"CLASSIFICATION_TYPE":"U","NORAD_CAT_ID":58309,"ELEMENT_SET_NO":999,"REV_AT_EPOCH":13039,"BSTAR":0.00066451051,"MEAN_MOTION_DOT":0.00037604,"MEAN_MOTION_DDOT":0}]
